[{"OBJECT_NAME":"STARLINK-30825","OBJECT_ID":"2023-178L","EPOCH":"2026-03-09T05:44:21.548256","MEAN_MOTION":15.30189727,"ECCENTRICITY":0.00010009,"INCLINATION":53.1614,"RA_OF_ASC_NODE":3.0548,"ARG_OF_PERICENTER":72.71,"MEAN_ANOMALY":287.4011,"EPHEMERIS_TYPE":0,"CLASSIFICATION_TYPE":"U","NORAD_CAT_ID":58384,"ELEMENT_SET_NO":999,"REV_AT_EPOCH":12982,"BSTAR":3.6171006e-5,"MEAN_MOTION_DOT":7.12e-6,"MEAN_MOTION_DDOT":0},{"OBJECT_NAME":"FENGYUN 1C DEB","OBJECT_ID":"1999-025FBF","EPOCH":"2026-03-06T07:33:49.292640","MEAN_MOTION":15.04395515,"ECCENTRICITY":0.01189701,"INCLINATION":98.9505,"RA_OF_ASC_NODE":84.7158,"ARG_OF_PERICENTER":75.0888,"MEAN_ANOMALY":286.3472,"EPHEMERIS_TYPE":0,"CLASSIFICATION_TYPE":"U","NORAD_CAT_ID":47029,"ELEMENT_SET_NO":999,"REV_AT_EPOCH":4330,"BSTAR":0.0027080259,"MEAN_MOTION_DOT":0.00044409,"MEAN_MOTION_DDOT":0}]
